[{"OBJECT_NAME":"OBJECT AD","OBJECT_ID":"2023-085AD","EPOCH":"2026-03-09T21:41:29.115744","MEAN_MOTION":15.31779154,"ECCENTRICITY":0.00101154,"INCLINATION":97.4841,"RA_OF_ASC_NODE":180.2223,"ARG_OF_PERICENTER":77.5993,"MEAN_ANOMALY":282.638,"EPHEMERIS_TYPE":0,"CLASSIFICATION_TYPE":"U","NORAD_CAT_ID":57031,"ELEMENT_SET_NO":999,"REV_AT_EPOCH":15156,"BSTAR":0.00068352515,"MEAN_MOTION_DOT":0.00020961,"MEAN_MOTION_DDOT":0},{"OBJECT_NAME":"STARLINK-33964","OBJECT_ID":"2025-110Y","EPOCH":"2026-03-09T07:04:51.531168","MEAN_MOTION":15.30188737,"ECCENTRICITY":0.0001047,"INCLINATION":53.1608,"RA_OF_ASC_NODE":28.4792,"ARG_OF_PERICENTER":79.4567,"MEAN_ANOMALY":280.6551,"EPHEMERIS_TYPE":0,"CLASSIFICATION_TYPE":"U","NORAD_CAT_ID":64118,"ELEMENT_SET_NO":999,"REV_AT_EPOCH":4582,"BSTAR":0.0010225595,"MEAN_MOTION_DOT":0.00030038,"MEAN_MOTION_DDOT":0}]
